NORAD_CAT_ID,OBJECT_NAME,OBJECT_TYPE,EPOCH,MEAN_MOTION,ECCENTRICITY,INCLINATION,RA_OF_ASC_NODE,ARG_OF_PERICENTER,MEAN_ANOMALY,BSTAR,MEAN_MOTION_DOT,MEAN_MOTION_DDOT,TLE_LINE0,TLE_LINE1,TLE_LINE2,SEMIMAJOR_AXIS,PERIOD,APOGEE,PERIGEE,DECAYED
52000.0,STARLINK-3653,PAYLOAD,2023-10-06 18:46:28,15.08856539,0.0001625,53.2169,31.5357,85.3221,274.7956,0.0027588,0.00043912,0.0,0 STARLINK-3653,1 52000U 22025AW  23279.78227870  .00043912  00000-0  27588-2 0  9993,2 52000  53.2169  31.5357 0001625  85.3221 274.7956 15.08856539 87335,6917.83,95.437,540.819,538.571,0.0
52000.0,STARLINK-3653,PAYLOAD,2023-10-07 01:08:01,15.08844636,0.000156,53.2174,30.3441,102.9601,257.1566,0.0014208,0.00022399,0.0,0 STARLINK-3653,1 52000U 22025AW  23280.04723999  .00022399  00000-0  14208-2 0  9998,2 52000  53.2174  30.3441 0001560 102.9601 257.1566 15.08844636 88909,6917.866,95.437,540.81,538.652,0.0
52000.0,STARLINK-3653,PAYLOAD,2023-10-07 13:51:06,15.08860441,0.0001607,53.2181,27.9676,93.4178,266.6998,0.0020824,0.00033028,0.0,0 STARLINK-3653,1 52000U 22025AW  23280.57715989  .00033028  00000-0  20824-2 0  9998,2 52000  53.2181  27.9676 0001607  93.4178 266.6998 15.08860441 87459,6917.818,95.436,540.795,538.571,0.0
52000.0,STARLINK-3653,PAYLOAD,2023-10-07 18:37:15,15.08879832,0.00016,53.2179,27.0758,88.8994,271.2182,0.0027558,0.00043892,0.0,0 STARLINK-3653,1 52000U 22025AW  23280.77587603  .00043892  00000-0  27558-2 0  9991,2 52000  53.2179  27.0758 0001600  88.8994 271.2182 15.08879832 87489,6917.759,95.435,540.73,538.517,0.0
52000.0,STARLINK-3653,PAYLOAD,2023-10-08 10:31:07,15.08853257,0.0001576,53.2181,24.1018,106.0517,254.0649,0.0016752,0.00026483,0.0,0 STARLINK-3653,1 52000U 22025AW  23281.43828009  .00026483  00000-0  16752-2 0  9994,2 52000  53.2181  24.1018 0001576 106.0517 254.0649 15.08853257 89117,6917.84,95.437,540.795,538.615,0.0
52000.0,STARLINK-3653,PAYLOAD,2023-10-08 13:41:53,15.08862393,0.0001442,53.2195,23.5085,87.0254,273.0903,0.0026552,0.00042249,0.0,0 STARLINK-3653,1 52000U 22025AW  23281.57076072  .00042249  00000-0  26552-2 0  9991,2 52000  53.2195  23.5085 0001442  87.0254 273.0903 15.08862393 87604,6917.812,95.436,540.674,538.679,0.0
52000.0,STARLINK-3653,PAYLOAD,2023-10-08 18:28:02,15.08877217,0.0001302,53.2181,22.6151,81.2731,278.8408,0.0028514,0.00045431,0.0,0 STARLINK-3653,1 52000U 22025AW  23281.76947722  .00045431  00000-0  28514-2 0  9997,2 52000  53.2181  22.6151 0001302  81.2731 278.8408 15.08877217 87631,6917.767,95.435,540.532,538.731,0.0
52000.0,STARLINK-3653,PAYLOAD,2023-10-09 07:11:08,15.08843515,0.0001205,53.2188,20.236,96.8268,263.2861,0.00068815,0.00010682,0.0,0 STARLINK-3653,1 52000U 22025AW  23282.29940050  .00010682  00000-0  68815-3 0  9992,2 52000  53.2188  20.2360 0001205  96.8268 263.2861 15.08843515 89247,6917.87,95.437,540.568,538.901,0.0
52000.0,STARLINK-3653,PAYLOAD,2023-10-09 11:57:17,15.08860214,0.0001358,53.2188,19.3447,94.3107,265.804,0.0021154,0.00033558,0.0,0 STARLINK-3653,1 52000U 22025AW  23282.49811991  .00033558  00000-0  21154-2 0  9996,2 52000  53.2188  19.3447 0001358  94.3107 265.8040 15.08860214 87741,6917.819,95.436,540.623,538.744,0.0
52000.0,STARLINK-3653,PAYLOAD,2023-10-09 16:43:26,15.08878598,0.0001321,53.2194,18.4533,86.7139,273.4004,0.0027571,0.00043911,0.0,0 STARLINK-3653,1 52000U 22025AW  23282.69683628  .00043911  00000-0  27571-2 0  9995,2 52000  53.2194  18.4533 0001321  86.7139 273.4004 15.08878598 89307,6917.762,95.435,540.541,538.714,0.0
52000.0,STARLINK-3653,PAYLOAD,2023-10-09 18:18:49,15.0888983,0.0001266,53.2184,18.155,90.484,269.6297,0.0031143,0.00049694,0.0,0 STARLINK-3653,1 52000U 22025AW  23282.76307363  .00049694  00000-0  31143-2 0  9996,2 52000  53.2184  18.1550 0001266  90.4840 269.6297 15.08889830 87783,6917.728,95.434,540.469,538.717,0.0
52000.0,STARLINK-3653,PAYLOAD,2023-10-10 10:12:41,15.0886198,0.0001258,53.2185,15.1811,101.3329,258.7805,0.0016741,0.00026472,0.0,0 STARLINK-3653,1 52000U 22025AW  23283.42547493  .00026472  00000-0  16741-2 0  9996,2 52000  53.2185  15.1811 0001258 101.3329 258.7805 15.08861980 89418,6917.813,95.436,540.548,538.808,0.0
52000.0,STARLINK-3653,PAYLOAD,2023-10-10 13:23:27,15.08872764,0.000128,53.2184,14.5871,107.0182,253.095,0.0022398,0.00035571,0.0,0 STARLINK-3653,1 52000U 22025AW  23283.55795269  .00035571  00000-0  22398-2 0  9991,2 52000  53.2184  14.5871 0001280 107.0182 253.0950 15.08872764 87904,6917.78,95.435,540.531,538.76,0.0
52000.0,STARLINK-3653,PAYLOAD,2023-10-10 16:34:13,15.08882119,0.0001254,53.2181,13.9924,105.9747,254.1383,0.002731,0.00043495,0.0,0 STARLINK-3653,1 52000U 22025AW  23283.69043001  .00043495  00000-0  27310-2 0  9999,2 52000  53.2181  13.9924 0001254 105.9747 254.1383 15.08882119 87927,6917.752,95.435,540.484,538.749,0.0
52000.0,STARLINK-3653,PAYLOAD,2023-10-11 10:03:28,15.08836704,0.0001472,53.2178,10.7216,90.6493,269.4667,0.0010466,0.00016406,0.0,0 STARLINK-3653,1 52000U 22025AW  23284.41907801  .00016406  00000-0  10466-2 0  9993,2 52000  53.2178  10.7216 0001472  90.6493 269.4667 15.08836704 89567,6917.89,95.438,540.774,538.737,0.0
52000.0,STARLINK-3653,PAYLOAD,2023-10-11 13:14:14,15.08839101,0.0001406,53.2177,10.1269,83.7047,276.4105,0.0015979,0.00025233,0.0,0 STARLINK-3653,1 52000U 22025AW  23284.55155980  .00025233  00000-0  15979-2 0  9993,2 52000  53.2177  10.1269 0001406  83.7047 276.4105 15.08839101 88055,6917.883,95.438,540.721,538.775,0.0
52000.0,STARLINK-3653,PAYLOAD,2023-10-12 05:08:08,15.08786277,0.0001215,53.218,7.1534,90.0938,270.0193,-6.4294e-05,-1.309e-05,0.0,0 STARLINK-3653,1 52000U 22025AW  23285.21398185 -.00001309  00000-0 -64294-4 0  9999,2 52000  53.2180   7.1534 0001215  90.0938 270.0193 15.08786277 89680,6918.045,95.441,540.75,539.069,0.0
52000.0,STARLINK-3653,PAYLOAD,2023-10-12 09:54:17,15.08800717,0.0001426,53.2176,6.2616,92.9461,267.1694,0.00086851,0.00013547,0.0,0 STARLINK-3653,1 52000U 22025AW  23285.41270666  .00013547  00000-0  86851-3 0  9991,2 52000  53.2176   6.2616 0001426  92.9461 267.1694 15.08800717 89715,6918.0,95.44,540.852,538.879,0.0
52000.0,STARLINK-3653,PAYLOAD,2023-10-12 13:05:04,15.08806436,0.0001606,53.2174,5.6674,81.3937,278.7237,0.0020509,0.00032473,0.0,0 STARLINK-3653,1 52000U 22025AW  23285.54519181  .00032473  00000-0  20509-2 0  9999,2 52000  53.2174   5.6674 0001606  81.3937 278.7237 15.08806436 88208,6917.983,95.44,540.959,538.737,0.0
52000.0,STARLINK-3653,PAYLOAD,2023-10-12 22:37:23,15.08848283,0.0001614,53.218,3.8833,81.8278,278.2897,0.002985,0.0004755,0.0,0 STARLINK-3653,1 52000U 22025AW  23285.94263418  .00047550  00000-0  29850-2 0  9992,2 52000  53.2180   3.8833 0001614  81.8278 278.2897 15.08848283 88263,6917.855,95.437,540.837,538.604,0.0
52000.0,STARLINK-3653,PAYLOAD,2023-10-13 11:20:27,15.08900023,0.0001675,53.2173,1.5042,78.7428,281.3752,0.002862,0.00045631,0.0,0 STARLINK-3653,1 52000U 22025AW  23286.47254042  .00045631  00000-0  28620-2 0  9996,2 52000  53.2173   1.5042 0001675  78.7428 281.3752 15.08900023 88346,6917.697,95.434,540.721,538.403,0.0
52000.0,STARLINK-3653,PAYLOAD,2023-10-13 19:17:22,15.08911086,0.0001614,53.2167,0.0177,75.6316,284.4855,0.0018517,0.00029362,0.0,0 STARLINK-3653,1 52000U 22025AW  23286.80372728  .00029362  00000-0  18517-2 0  9992,2 52000  53.2167   0.0177 0001614  75.6316 284.4855 15.08911086 88391,6917.663,95.433,540.645,538.412,0.0
52000.0,STARLINK-3653,PAYLOAD,2023-10-13 22:28:08,15.08871688,0.0001215,53.2185,359.422,85.9663,274.1468,-0.00013166,-2.384e-05,0.0,0 STARLINK-3653,1 52000U 22025AW  23286.93620751 -.00002384  00000-0 -13166-3 0  9991,2 52000  53.2185 359.4220 0001215  85.9663 274.1468 15.08871688 89948,6917.784,95.436,540.489,538.808,0.0
52000.0,STARLINK-3653,PAYLOAD,2023-10-14 11:11:12,15.08880399,0.0001395,53.2175,357.0437,88.9197,271.1955,0.0027488,0.0004378,0.0,0 STARLINK-3653,1 52000U 22025AW  23287.46612029  .00043780  00000-0  27488-2 0  9993,2 52000  53.2175 357.0437 0001395  88.9197 271.1955 15.08880399 88491,6917.757,95.435,540.587,538.657,0.0
52000.0,STARLINK-3653,PAYLOAD,2023-10-14 14:21:58,15.08883486,0.0001444,53.2175,356.4489,88.2898,271.826,0.0025739,0.00040963,0.0,0 STARLINK-3653,1 52000U 22025AW  23287.59859780  .00040963  00000-0  25739-2 0  9991,2 52000  53.2175 356.4489 0001444  88.2898 271.8260 15.08883486 90047,6917.747,95.435,540.611,538.614,0.0
52000.0,STARLINK-3653,PAYLOAD,2023-10-14 22:18:54,15.08850508,0.0001971,53.2172,354.9632,93.4811,266.6407,0.00045163,6.909e-05,0.0,0 STARLINK-3653,1 52000U 22025AW  23287.92980263  .00006909  00000-0  45163-3 0  9995,2 52000  53.2172 354.9632 0001971  93.4811 266.6407 15.08850508 90094,6917.848,95.437,541.077,538.35,0.0
52000.0,STARLINK-3653,PAYLOAD,2023-10-15 11:02:00,15.0882026,0.0001601,53.2167,352.5844,101.719,258.3982,0.00076218,0.00011856,0.0,0 STARLINK-3653,1 52000U 22025AW  23288.45973126  .00011856  00000-0  76218-3 0  9996,2 52000  53.2167 352.5844 0001601 101.7190 258.3982 15.08820260 90177,6917.941,95.439,540.913,538.698,0.0
52000.0,STARLINK-3653,PAYLOAD,2023-10-16 10:52:48,15.08857599,0.0001568,53.2175,348.1252,98.0051,262.1119,0.0015326,0.00024199,0.0,0 STARLINK-3653,1 52000U 22025AW  23289.45333503  .00024199  00000-0  15326-2 0  9992,2 52000  53.2175 348.1252 0001568  98.0051 262.1119 15.08857599 88791,6917.827,95.436,540.776,538.607,0.0
52000.0,STARLINK-3653,PAYLOAD,2023-10-17 09:08:11,15.08849918,0.0001393,53.2173,343.9601,106.1255,253.9891,0.00048704,7.474e-05,0.0,0 STARLINK-3653,1 52000U 22025AW  23290.38069351  .00007474  00000-0  48704-3 0  9997,2 52000  53.2173 343.9601 0001393 106.1255 253.9891 15.08849918 90461,6917.85,95.437,540.679,538.751,0.0
52000.0,STARLINK-3653,PAYLOAD,2023-10-17 20:15:53,15.08853149,0.0001299,53.2174,341.8802,87.9153,272.1988,0.00085097,0.00013286,0.0,0 STARLINK-3653,1 52000U 22025AW  23290.84437323  .00013286  00000-0  85097-3 0  9990,2 52000  53.2174 341.8802 0001299  87.9153 272.1988 15.08853149 89009,6917.84,95.437,540.604,538.807,0.0
